$$SOE
2461295.500000000, A.D. 2026-Sep-12 00:00:00.0000, -3.195003219074675E+08, -1.692677031117316E+08, -5.984667082828964E+07,
2461302.500000000, A.D. 2026-Sep-19 00:00:00.0000, -3.138507767098497E+08, -1.792020486870967E+08, -6.087720790736874E+07,
2461309.500000000, A.D. 2026-Sep-26 00:00:00.0000, -3.078917571777382E+08, -1.889596819440181E+08, -6.184771327389566E+07,
2461316.500000000, A.D. 2026-Oct-03 00:00:00.0000, -3.016291623751420E+08, -1.985309986363277E+08, -6.275723445107797E+07,
2461323.500000000, A.D. 2026-Oct-10 00:00:00.0000, -2.950691841243103E+08, -2.079065763289706E+08, -6.360487816835622E+07,
2461330.500000000, A.D. 2026-Oct-17 00:00:00.0000, -2.882183012186947E+08, -2.170771830847000E+08, -6.438981117666019E+07,
2461337.500000000, A.D. 2026-Oct-24 00:00:00.0000, -2.810832734017728E+08, -2.260337860804919E+08, -6.511126101970039E+07,
2461344.500000000, A.D. 2026-Oct-31 00:00:00.0000, -2.736711350174246E+08, -2.347675602139485E+08, -6.576851677501966E+07,
2461351.500000000, A.D. 2026-Nov-07 00:00:00.0000, -2.659891879972864E+08, -2.432698966194477E+08, -6.636092978905471E+07,
2461358.500000000, A.D. 2026-Nov-14 00:00:00.0000, -2.580449939886603E+08, -2.515324102002313E+08, -6.688791435119446E+07,
2461365.500000000, A.D. 2026-Nov-21 00:00:00.0000, -2.498463674383746E+08, -2.595469454877342E+08, -6.734894808373751E+07,
2461372.500000000, A.D. 2026-Nov-28 00:00:00.0000, -2.414013706339312E+08, -2.673055838306322E+08, -6.774357220117420E+07,
2461379.500000000, A.D. 2026-Dec-05 00:00:00.0000, -2.327183070880291E+08, -2.748006525665231E+08, -6.807139202458985E+07,
2461386.500000000, A.D. 2026-Dec-12 00:00:00.0000, -2.238057131088033E+08, -2.820247330607579E+08, -6.833207751212959E+07,
2461393.500000000, A.D. 2026-Dec-19 00:00:00.0000, -2.146723494490932E+08, -2.889706675991465E+08, -6.852536363096668E+07,
2461400.500000000, A.D. 2026-Dec-26 00:00:00.0000, -2.053271931816660E+08, -2.956315659951244E+08, -6.865105062722363E+07,
2461407.500000000, A.D. 2027-Jan-02 00:00:00.0000, -1.957794295284397E+08, -3.020008120959619E+08, -6.870900423361346E+07,
2461414.500000000, A.D. 2027-Jan-09 00:00:00.0000, -1.860384435315821E+08, -3.080720701634169E+08, -6.869915582363684E+07,
2461421.500000000, A.D. 2027-Jan-16 00:00:00.0000, -1.761138115380390E+08, -3.138392911164196E+08, -6.862150251519312E+07,
2461428.500000000, A.D. 2027-Jan-23 00:00:00.0000, -1.660152924595798E+08, -3.192967186712711E+08, -6.847610723128130E+07,
2461435.500000000, A.D. 2027-Jan-30 00:00:00.0000, -1.557528186286933E+08, -3.244388954224765E+08, -6.826309873889878E+07,
2461442.500000000, A.D. 2027-Feb-06 00:00:00.0000, -1.453364858334926E+08, -3.292606685196017E+08, -6.798267167733131E+07,
2461449.500000000, A.D. 2027-Feb-13 00:00:00.0000, -1.347765429998656E+08, -3.337571937157428E+08, -6.763508643400748E+07,
2461456.500000000, A.D. 2027-Feb-20 00:00:00.0000, -1.240833838921048E+08, -3.379239385731418E+08, -6.722066871574122E+07,
2461463.500000000, A.D. 2027-Feb-27 00:00:00.0000, -1.132675394431584E+08, -3.417566880351655E+08, -6.673980920645179E+07,
2461470.500000000, A.D. 2027-Mar-06 00:00:00.0000, -1.023396677055384E+08, -3.452515504391735E+08, -6.619296343183975E+07,
2461477.500000000, A.D. 2027-Mar-13 00:00:00.0000, -9.131054303353012E+07, -3.484049619151890E+08, -6.558065151622801E+07,
2461484.500000000, A.D. 2027-Mar-20 00:00:00.0000, -8.019104563443823E+07, -3.512136899954273E+08, -6.490345779392816E+07,
2461491.500000000, A.D. 2027-Mar-27 00:00:00.0000, -6.899215129158816E+07, -3.536748369731228E+08, -6.416203033591837E+07,
2461498.500000000, A.D. 2027-Apr-03 00:00:00.0000, -5.772492105819979E+07, -3.557858430507064E+08, -6.335708041326539E+07,
2461505.500000000, A.D. 2027-Apr-10 00:00:00.0000, -4.640049086320819E+07, -3.575444892517365E+08, -6.248938190250891E+07,
2461512.500000000, A.D. 2027-Apr-17 00:00:00.0000, -3.503006101293331E+07, -3.589489001125279E+08, -6.155977063937934E+07,
2461519.500000000, A.D. 2027-Apr-24 00:00:00.0000, -2.362488551963983E+07, -3.599975462174908E+08, -6.056914373597024E+07,
2461526.500000000, A.D. 2027-May-01 00:00:00.0000, -1.219626096931970E+07, -3.606892465493761E+08, -5.951845888768104E+07,
2461533.500000000, A.D. 2027-May-08 00:00:00.0000, -7.555146324586683E+05, -3.610231699022775E+08, -5.840873363674282E+07,
2461540.500000000, A.D. 2027-May-15 00:00:00.0000, 1.068600667549722E+07, -3.609988343983569E+08, -5.724104437631497E+07,
2461547.500000000, A.D. 2027-May-22 00:00:00.0000, 2.211694541187223E+07, -3.606161076929185E+08, -5.601652516269113E+07,
2461554.500000000, A.D. 2027-May-29 00:00:00.0000, 3.352594315183264E+07, -3.598752093310536E+08, -5.473636676340042E+07,
2461561.500000000, A.D. 2027-Jun-05 00:00:00.0000, 4.490165233797073E+07, -3.587767121227542E+08, -5.340181576726399E+07,
2461568.500000000, A.D. 2027-Jun-12 00:00:00.0000, 5.623274791745104E+07, -3.573215421036818E+08, -5.201417353770432E+07,
2461575.500000000, A.D. 2027-Jun-19 00:00:00.0000, 6.750793852542162E+07, -3.555109780146467E+08, -5.057479505569902E+07,
2461582.500000000, A.D. 2027-Jun-26 00:00:00.0000, 7.871597748305281E+07, -3.533466505586725E+08, -4.908508769938092E+07,
2461589.500000000, A.D. 2027-Jul-03 00:00:00.0000, 8.984567373042031E+07, -3.508305414238485E+08, -4.754650997129866E+07,
2461596.500000000, A.D. 2027-Jul-10 00:00:00.0000, 1.008859027193016E+08, -3.479649820579469E+08, -4.596057017522937E+07,
2461603.500000000, A.D. 2027-Jul-17 00:00:00.0000, 1.118256172923305E+08, -3.447526522277449E+08, -4.432882504852141E+07,
2461610.500000000, A.D. 2027-Jul-24 00:00:00.0000, 1.226538586970714E+08, -3.411965784221127E+08, -4.265287836977160E+07,
2461617.500000000, A.D. 2027-Jul-31 00:00:00.0000, 1.333597681388102E+08, -3.373001318629736E+08, -4.093437956148376E+07,
2461624.500000000, A.D. 2027-Aug-07 00:00:00.0000, 1.439325986624119E+08, -3.330670249740160E+08, -3.917502217680070E+07,
2461631.500000000, A.D. 2027-Aug-14 00:00:00.0000, 1.543617250513640E+08, -3.285013065616330E+08, -3.737654208166251E+07,
2461638.500000000, A.D. 2027-Aug-21 00:00:00.0000, 1.646366523507215E+08, -3.236073590715125E+08, -3.554071566567671E+07,
2461645.500000000, A.D. 2027-Aug-28 00:00:00.0000, 1.747470264345326E+08, -3.183898967181069E+08, -3.366935829989317E+07,
2461652.500000000, A.D. 2027-Sep-04 00:00:00.0000, 1.846826454257981E+08, -3.128539619876727E+08, -3.176432273047271E+07,
2461659.500000000, A.D. 2027-Sep-11 00:00:00.0000, 1.944334705616045E+08, -3.070049211787357E+08, -2.982749733578713E+07,
2461666.500000000, A.D. 2027-Sep-18 00:00:00.0000, 2.039896366243541E+08, -3.008484596315252E+08, -2.786080431360340E+07,
2461673.500000000, A.D. 2027-Sep-25 00:00:00.0000, 2.133414621559933E+08, -2.943905767252121E+08, -2.586619782704942E+07,
2461680.500000000, A.D. 2027-Oct-02 00:00:00.0000, 2.224794595182624E+08, -2.876375806169291E+08, -2.384566211545886E+07,
2461687.500000000, A.D. 2027-Oct-09 00:00:00.0000, 2.313943448087861E+08, -2.805960827284702E+08, -2.180120957410951E+07,
2461694.500000000, A.D. 2027-Oct-16 00:00:00.0000, 2.400770476835222E+08, -2.732729920359129E+08, -1.973487881491418E+07,
2461701.500000000, A.D. 2027-Oct-23 00:00:00.0000, 2.485187213349270E+08, -2.656755091683364E+08, -1.764873273439756E+07,
2461708.500000000, A.D. 2027-Oct-30 00:00:00.0000, 2.567107529925472E+08, -2.578111197092208E+08, -1.554485657552624E+07,
2461715.500000000, A.D. 2027-Nov-06 00:00:00.0000, 2.646447737738499E+08, -2.496875855800057E+08, -1.342535578636560E+07,
2461722.500000000, A.D. 2027-Nov-13 00:00:00.0000, 2.723126658877294E+08, -2.413129365888820E+08, -1.129235366489108E+07,
2461729.500000000, A.D. 2027-Nov-20 00:00:00.0000, 2.797065700792228E+08, -2.326954643345806E+08, -9.147989236514911E+06,
2461736.500000000, A.D. 2027-Nov-27 00:00:00.0000, 2.868188949214066E+08, -2.238437155060937E+08, -6.994415272150040E+06,
2461743.500000000, A.D. 2027-Dec-04 00:00:00.0000, 2.936423259181430E+08, -2.147664836724197E+08, -4.833796188175574E+06,
2461750.500000000, A.D. 2027-Dec-11 00:00:00.0000, 3.001698338509971E+08, -2.054728005326032E+08, -2.668305858505026E+06,
2461757.500000000, A.D. 2027-Dec-18 00:00:00.0000, 3.063946826290167E+08, -1.959719269677007E+08, -5.001253942857683E+05,
2461764.500000000, A.D. 2027-Dec-25 00:00:00.0000, 3.123104367816096E+08, -1.862733438979183E+08, 1.668559091472432E+06,
2461771.500000000, A.D. 2028-Jan-01 00:00:00.0000, 3.179109686301430E+08, -1.763867429347460E+08, 3.835558728661135E+06,
$$EOE